[Satellite]
VERSION=1.1
NAME=CZ-6A DEB
NICKNAME=CZ-6A DEB
TLE1=1 54405U 22151ED  22342.31619106  .00002037  00000+0  41701-3 0  9996
TLE2=2 54405  98.7961 348.5982 0175035 198.9342 160.5290 14.52802353  3566
STATUS=0
